[Satellite]
VERSION=1.1
NAME=LEDSAT
NICKNAME=LEDSAT
TLE1=1 49069U 21073D   22341.94621135  .00007331  00000+0  44827-3 0  9995
TLE2=2 49069  97.5084  51.3903 0027386  61.4265 298.9715 15.10221436 72009
STATUS=0
